COMMENT,ORIGINATOR,NORAD_CAT_ID,OBJECT_NAME,OBJECT_TYPE,CLASSIFICATION_TYPE,INTLDES,EPOCH,EPOCH_MICROSECONDS,MEAN_MOTION,ECCENTRICITY,INCLINATION,RA_OF_ASC_NODE,ARG_OF_PERICENTER,MEAN_ANOMALY,EPHEMERIS_TYPE,ELEMENT_SET_NO,REV_AT_EPOCH,BSTAR,MEAN_MOTION_DOT,MEAN_MOTION_DDOT,FILE,TLE_LINE0,TLE_LINE1,TLE_LINE2,OBJECT_ID,OBJECT_NUMBER,SEMIMAJOR_AXIS,PERIOD,APOGEE,PERIGEE,DECAYED
"GENERATED VIA SPACETRACK.ORG API","18 SPCS","55099","SPACEBEE-156","PAYLOAD","U","23001CU","2024-02-21 17:34:55","286112","15.34586802","0.0011001","97.4394","117.4016","200.0991","159.9821","0","999","6316","0.0010488","0.00035252","0","4195143","0 SPACEBEE-156","1 55099U 23001CU  24052.73258433  .00035252  00000-0  10488-2 0  9992","2 55099  97.4394 117.4016 0011001 200.0991 159.9821 15.34586802 63163","2023-001CU","55099","6840.285","93.836","469.675","454.625","0"
"GENERATED VIA SPACETRACK.ORG API","18 SPCS","55099","SPACEBEE-156","PAYLOAD","U","23001CU","2024-02-22 10:47:46","198464","15.34643836","0.0010999","97.4391","118.125","197.5913","162.4951","0","999","6327","0.0011262","0.00037941","0","4195736","0 SPACEBEE-156","1 55099U 23001CU  24053.44984026  .00037941  00000-0  11262-2 0  9993","2 55099  97.4391 118.1250 0010999 197.5913 162.4951 15.34643836 63273","2023-001CU","55099","6840.116","93.833","469.504","454.457","0"
"GENERATED VIA SPACETRACK.ORG API","18 SPCS","55099","SPACEBEE-156","PAYLOAD","U","23001CU","2024-02-22 17:03:20","492640","15.34666686","0.0010999","97.439","118.388","196.6492","163.4391","0","999","6331","0.0011736","0.00039578","0","4195999","0 SPACEBEE-156","1 55099U 23001CU  24053.71065385  .00039578  00000-0  11736-2 0  9995","2 55099  97.4390 118.3880 0010999 196.6492 163.4391 15.34666686 63317","2023-001CU","55099","6840.048","93.831","469.436","454.389","0"
"GENERATED VIA SPACETRACK.ORG API","18 SPCS","55099","SPACEBEE-156","PAYLOAD","U","23001CU","2024-02-22 17:03:20","492640","15.34666686","0.0010999","97.439","118.388","196.6492","163.4391","0","999","6331","0.0011736","0.00039578","0","4196009","0 SPACEBEE-156","1 55099U 23001CU  24053.71065385  .00039578  00000-0  11736-2 0  9995","2 55099  97.4390 118.3880 0010999 196.6492 163.4391 15.34666686 63317","2023-001CU","55099","6840.048","93.831","469.436","454.389","0"
"GENERATED VIA SPACETRACK.ORG API","18 SPCS","55099","SPACEBEE-156","PAYLOAD","U","23001CU","2024-02-23 04:00:34","790112","15.3470082","0.0010994","97.4389","118.848","195.2419","164.8495","0","999","6338","0.0010884","0.00036725","0","4196606","0 SPACEBEE-156","1 55099U 23001CU  24054.16706933  .00036725  00000-0  10884-2 0  9990","2 55099  97.4389 118.8480 0010994 195.2419 164.8495 15.34700820 63381","2023-001CU","55099","6839.946","93.829","469.331","454.291","0"
"GENERATED VIA SPACETRACK.ORG API","18 SPCS","55099","SPACEBEE-156","PAYLOAD","U","23001CU","2024-02-23 16:31:41","361024","15.34745179","0.0011032","97.4386","119.374","193.3538","166.7414","0","999","6346","0.001132","0.00038262","0","4196938","0 SPACEBEE-156","1 55099U 23001CU  24054.68867316  .00038262  00000-0  11320-2 0  9994","2 55099  97.4386 119.3740 0011032 193.3538 166.7414 15.34745179 63465","2023-001CU","55099","6839.814","93.827","469.225","454.134","0"
"GENERATED VIA SPACETRACK.ORG API","18 SPCS","55099","SPACEBEE-156","PAYLOAD","U","23001CU","2024-02-24 03:28:53","724000","15.34778849","0.0011054","97.4383","119.8342","191.7833","168.3153","0","999","6353","0.0011502","0.00038924","0","4197210","0 SPACEBEE-156","1 55099U 23001CU  24055.14506625  .00038924  00000-0  11502-2 0  9996","2 55099  97.4383 119.8342 0011054 191.7833 168.3153 15.34778849 63535","2023-001CU","55099","6839.714","93.825","469.140","454.019","0"
"GENERATED VIA SPACETRACK.ORG API","18 SPCS","55099","SPACEBEE-156","PAYLOAD","U","23001CU","2024-02-24 03:28:53","724000","15.34778849","0.0011054","97.4383","119.8342","191.7833","168.3153","0","999","6353","0.0011502","0.00038924","0","4197491","0 SPACEBEE-156","1 55099U 23001CU  24055.14506625  .00038924  00000-0  11502-2 0  9996","2 55099  97.4383 119.8342 0011054 191.7833 168.3153 15.34778849 63535","2023-001CU","55099","6839.714","93.825","469.140","454.019","0"
"GENERATED VIA SPACETRACK.ORG API","18 SPCS","55099","SPACEBEE-156","PAYLOAD","U","23001CU","2024-02-25 10:46:32","513088","15.34886049","0.0011087","97.438","121.1493","187.0346","173.0744","0","999","6373","0.0013103","0.00044537","0","4198345","0 SPACEBEE-156","1 55099U 23001CU  24056.44898742  .00044537  00000-0  13103-2 0  9990","2 55099  97.4380 121.1493 0011087 187.0346 173.0744 15.34886049 63731","2023-001CU","55099","6839.396","93.818","468.844","453.678","0"
"GENERATED VIA SPACETRACK.ORG API","18 SPCS","55099","SPACEBEE-156","PAYLOAD","U","23001CU","2024-02-25 10:46:32","513088","15.34886049","0.0011087","97.438","121.1493","187.0346","173.0744","0","999","6373","0.0013103","0.00044537","0","4198379","0 SPACEBEE-156","1 55099U 23001CU  24056.44898742  .00044537  00000-0  13103-2 0  9990","2 55099  97.4380 121.1493 0011087 187.0346 173.0744 15.34886049 63731","2023-001CU","55099","6839.396","93.818","468.844","453.678","0"
"GENERATED VIA SPACETRACK.ORG API","18 SPCS","55099","SPACEBEE-156","PAYLOAD","U","23001CU","2024-02-25 17:02:03","227712","15.34914898","0.0011132","97.4378","121.4123","186.042","174.0691","0","999","6377","0.0014698","0.0005005","0","4198683","0 SPACEBEE-156","1 55099U 23001CU  24056.70975958  .00050050  00000-0  14698-2 0  9991","2 55099  97.4378 121.4123 0011132 186.0420 174.0691 15.34914898 63774","2023-001CU","55099","6839.310","93.816","468.789","453.562","0"
"GENERATED VIA SPACETRACK.ORG API","18 SPCS","55099","SPACEBEE-156","PAYLOAD","U","23001CU","2024-02-26 03:59:11","129856","15.34957095","0.0011126","97.4377","121.8724","184.4872","175.6273","0","999","6384","0.0014352","0.00048929","0","4199244","0 SPACEBEE-156","1 55099U 23001CU  24057.16610104  .00048929  00000-0  14352-2 0  9990","2 55099  97.4377 121.8724 0011126 184.4872 175.6273 15.34957095 63847","2023-001CU","55099","6839.185","93.814","468.659","453.441","0"
"GENERATED VIA SPACETRACK.ORG API","18 SPCS","55099","SPACEBEE-156","PAYLOAD","U","23001CU","2024-02-26 18:04:02","489376","15.35010695","0.0011178","97.4374","122.4642","182.4795","177.6395","0","999","6393","0.0013423","0.00045817","0","4199523","0 SPACEBEE-156","1 55099U 23001CU  24057.75280659  .00045817  00000-0  13423-2 0  9994","2 55099  97.4374 122.4642 0011178 182.4795 177.6395 15.35010695 63933","2023-001CU","55099","6839.026","93.810","468.535","453.246","0"
"GENERATED VIA SPACETRACK.ORG API","18 SPCS","55099","SPACEBEE-156","PAYLOAD","U","23001CU","2024-02-26 18:04:02","489376","15.35010695","0.0011178","97.4374","122.4642","182.4795","177.6395","0","999","6393","0.0013423","0.00045817","0","4199532","0 SPACEBEE-156","1 55099U 23001CU  24057.75280659  .00045817  00000-0  13423-2 0  9994","2 55099  97.4374 122.4642 0011178 182.4795 177.6395 15.35010695 63933","2023-001CU","55099","6839.026","93.810","468.535","453.246","0"
"GENERATED VIA SPACETRACK.ORG API","18 SPCS","55099","SPACEBEE-156","PAYLOAD","U","23001CU","2024-02-27 09:42:44","316576","15.35066275","0.0011249","97.4369","123.1218","180.2978","179.826","0","999","6403","0.001358","0.0004644","0","4200159","0 SPACEBEE-156","1 55099U 23001CU  24058.40467959  .00046440  00000-0  13580-2 0  9994","2 55099  97.4369 123.1218 0011249 180.2978 179.8260 15.35066275 64034","2023-001CU","55099","6838.861","93.807","468.419","453.033","0"
"GENERATED VIA SPACETRACK.ORG API","18 SPCS","55099","SPACEBEE-156","PAYLOAD","U","23001CU","2024-02-27 17:32:04","512192","15.35089868","0.0011238","97.4369","123.4507","179.3265","180.7995","0","999","6408","0.0012044","0.00041181","0","4200440","0 SPACEBEE-156","1 55099U 23001CU  24058.73060778  .00041181  00000-0  12044-2 0  9999","2 55099  97.4369 123.4507 0011238 179.3265 180.7995 15.35089868 64088","2023-001CU","55099","6838.791","93.806","468.341","452.970","0"
"GENERATED VIA SPACETRACK.ORG API","18 SPCS","55099","SPACEBEE-156","PAYLOAD","U","23001CU","2024-02-27 17:32:04","512192","15.35089868","0.0011238","97.4369","123.4507","179.3265","180.7995","0","999","6408","0.0012044","0.00041181","0","4200457","0 SPACEBEE-156","1 55099U 23001CU  24058.73060778  .00041181  00000-0  12044-2 0  9999","2 55099  97.4369 123.4507 0011238 179.3265 180.7995 15.35089868 64088","2023-001CU","55099","6838.791","93.806","468.341","452.970","0"
"GENERATED VIA SPACETRACK.ORG API","18 SPCS","55099","SPACEBEE-156","PAYLOAD","U","23001CU","2024-02-28 02:55:16","131936","15.35118021","0.0011221","97.4368","123.8452","178.0013","182.1277","0","999","6414","0.0011017","0.00037679","0","4201083","0 SPACEBEE-156","1 55099U 23001CU  24059.12171449  .00037679  00000-0  11017-2 0  9997","2 55099  97.4368 123.8452 0011221 178.0013 182.1277 15.35118021 64149","2023-001CU","55099","6838.707","93.804","468.246","452.898","0"
"GENERATED VIA SPACETRACK.ORG API","18 SPCS","55099","SPACEBEE-156","PAYLOAD","U","23001CU","2024-02-28 17:00:02","387808","15.35159366","0.0011225","97.4368","124.4372","175.7029","184.4313","0","999","6423","0.0010067","0.00034454","0","4201346","0 SPACEBEE-156","1 55099U 23001CU  24059.70836097  .00034454  00000-0  10067-2 0  9990","2 55099  97.4368 124.4372 0011225 175.7029 184.4313 15.35159366 64235","2023-001CU","55099","6838.584","93.801","468.125","452.773","0"
"GENERATED VIA SPACETRACK.ORG API","18 SPCS","55099","SPACEBEE-156","PAYLOAD","U","23001CU","2024-02-28 17:00:02","387808","15.35159366","0.0011225","97.4368","124.4372","175.7029","184.4313","0","999","6423","0.0010067","0.00034454","0","4201365","0 SPACEBEE-156","1 55099U 23001CU  24059.70836097  .00034454  00000-0  10067-2 0  9990","2 55099  97.4368 124.4372 0011225 175.7029 184.4313 15.35159366 64235","2023-001CU","55099","6838.584","93.801","468.125","452.773","0"
